[{"OBJECT_NAME":"KSM1-A","OBJECT_ID":"2020-081H","EPOCH":"2026-03-09T23:34:08.864256","MEAN_MOTION":15.24261374,"ECCENTRICITY":0.00028414,"INCLINATION":36.8964,"RA_OF_ASC_NODE":312.2974,"ARG_OF_PERICENTER":256.0923,"MEAN_ANOMALY":103.9509,"EPHEMERIS_TYPE":0,"CLASSIFICATION_TYPE":"U","NORAD_CAT_ID":46912,"ELEMENT_SET_NO":999,"REV_AT_EPOCH":29402,"BSTAR":0.00047546467,"MEAN_MOTION_DOT":0.00011801,"MEAN_MOTION_DDOT":0},{"OBJECT_NAME":"STARLINK-3352","OBJECT_ID":"2022-005AV","EPOCH":"2026-03-09T21:54:30.530304","MEAN_MOTION":15.2466211,"ECCENTRICITY":0.00016254,"INCLINATION":53.1885,"RA_OF_ASC_NODE":295.7169,"ARG_OF_PERICENTER":135.3968,"MEAN_ANOMALY":224.7162,"EPHEMERIS_TYPE":0,"CLASSIFICATION_TYPE":"U","NORAD_CAT_ID":51147,"ELEMENT_SET_NO":999,"REV_AT_EPOCH":22880,"BSTAR":0.0019228905,"MEAN_MOTION_DOT":0.00048096,"MEAN_MOTION_DDOT":0}]
